{"type": "FeatureCollection", "features": [ {"type": "Feature", "properties": {"norad_id": 66820, "name": "KOMPSAT-7", "group": "last-30-days", "lat": 23.741092114404104, "lon": 125.32914446259261, "alt_km": 562.6028134051585, "timestamp": "2025-12-22T05:49:02.186476+00:00", "meta": {"OBJECT_NAME": "KOMPSAT-7", "OBJECT_ID": "2025-279A", "EPOCH": "2025-12-21T14:43:15.384864", "MEAN_MOTION": 15.00649834, "ECCENTRICITY": 0.00110253, "INCLINATION": 97.6444, "RA_OF_ASC_NODE": 301.3241, "ARG_OF_PERICENTER": 234.4274, "MEAN_ANOMALY": 125.5923, "EPHEMERIS_TYPE": 0, "CLASSIFICATION_TYPE": "U", "NORAD_CAT_ID": 66820, "ELEMENT_SET_NO": 999, "REV_AT_EPOCH": 298, "BSTAR": 0.00020207224, "MEAN_MOTION_DOT": 2.499e-05, "MEAN_MOTION_DDOT": 0}, "tle": {"line1": "1 66820U 25279A   25355.61337251  .00002499  00000+0  20207-3 0  9992", "line2": "2 66820  97.6444 301.3241 0011025 234.4274 125.5923 15.00649834  2983"}}, "geometry": {"type": "Point", "coordinates": [125.32914446259261, 23.741092114404104]}}, {"type": "Feature", "properties": {"norad_id": 66821, "name": "STARLINK-35966", "group": "last-30-days", "lat": -2.5634242293547547, "lon": -6.676016763851124, "alt_km": 412.3127859598835, "timestamp": "2025-12-22T05:49:02.186488+00:00", "meta": {"OBJECT_NAME": "STARLINK-35966", "OBJECT_ID": "2025-280A", "EPOCH": "2025-12-21T20:00:01.999008", "MEAN_MOTION": 15.5255383, "ECCENTRICITY": 0.0003412, "INCLINATION": 70, "RA_OF_ASC_NODE": 173.5095, "ARG_OF_PERICENTER": 274.1701, "MEAN_ANOMALY": 143.063, "EPHEMERIS_TYPE": 0, "CLASSIFICATION_TYPE": "U", "NORAD_CAT_ID": 66821, "ELEMENT_SET_NO": 999, "REV_AT_EPOCH": 435, "BSTAR": -0.0013546, "MEAN_MOTION_DOT": -0.00082749, "MEAN_MOTION_DDOT": 0}, "tle": {"line1": "1 66821U 25280A   25355.83335647 -.00082749  00000+0 -13546-2 0  9991", "line2": "2 66821  70.0000 173.5095 0003412 274.1701 143.0630 15.52553830  4350"}}, "geometry": {"type": "Point", "coordinates": [-6.676016763851124, -2.5634242293547547]}}, {"type": "Feature", "properties": {"norad_id": 66822, "name": "STARLINK-35958", "group": "last-30-days", "lat": -4.35874480419921, "lon": -6.021534455904243, "alt_km": 412.33326987098644, "timestamp": "2025-12-22T05:49:02.186498+00:00", "meta": {"OBJECT_NAME": "STARLINK-35958", "OBJECT_ID": "2025-280B", "EPOCH": "2025-12-21T20:00:01.999008", "MEAN_MOTION": 15.52456361, "ECCENTRICITY": 0.0003264, "INCLINATION": 69.9998, "RA_OF_ASC_NODE": 173.5074, "ARG_OF_PERICENTER": 273.1737, "MEAN_ANOMALY": 146.017, "EPHEMERIS_TYPE": 0, "CLASSIFICATION_TYPE": "U", "NORAD_CAT_ID": 66822, "ELEMENT_SET_NO": 999, "REV_AT_EPOCH": 435, "BSTAR": 0.0012223, "MEAN_MOTION_DOT": 0.00075579, "MEAN_MOTION_DDOT": 0}, "tle": {"line1": "1 66822U 25280B   25355.83335647  .00075579  00000+0  12223-2 0  9994", "line2": "2 66822  69.9998 173.5074 0003264 273.1737 146.0170 15.52456361  4357"}}, "geometry": {"type": "Point", "coordinates": [-6.021534455904243, -4.35874480419921]}}, {"type": "Feature", "properties": {"norad_id": 66823, "name": "STARLINK-35957", "group": "last-30-days", "lat": -6.166869571271307, "lon": -5.359275989761297, "alt_km": 412.50336559014795, "timestamp": "2025-12-22T05:49:02.186508+00:00", "meta": {"OBJECT_NAME": "STARLINK-35957", "OBJECT_ID": "2025-280C", "EPOCH": "2025-12-21T20:00:01.999008", "MEAN_MOTION": 15.52547475, "ECCENTRICITY": 0.0003433, "INCLINATION": 69.9998, "RA_OF_ASC_NODE": 173.5051, "ARG_OF_PERICENTER": 271.6888, "MEAN_ANOMALY": 149.3876, "EPHEMERIS_TYPE": 0, "CLASSIFICATION_TYPE": "U", "NORAD_CAT_ID": 66823, "ELEMENT_SET_NO": 999, "REV_AT_EPOCH": 435, "BSTAR": -0.001286, "MEAN_MOTION_DOT": -0.00078592, "MEAN_MOTION_DDOT": 0}, "tle": {"line1": "1 66823U 25280C   25355.83335647 -.00078592  00000+0 -12860-2 0  9992", "line2": "2 66823  69.9998 173.5051 0003433 271.6888 149.3876 15.52547475  4357"}}, "geometry": {"type": "Point", "coordinates": [-5.359275989761297, -6.166869571271307]}}, {"type": "Feature", "properties": {"norad_id": 66824, "name": "STARLINK-35896", "group": "last-30-days", "lat": -7.9575798156877955, "lon": -4.698462002902723, "alt_km": 412.6094130235506, "timestamp": "2025-12-22T05:49:02.186530+00:00", "meta": {"OBJECT_NAME": "STARLINK-35896", "OBJECT_ID": "2025-280D", "EPOCH": "2025-12-21T20:00:01.999008", "MEAN_MOTION": 15.52462911, "ECCENTRICITY": 0.0003372, "INCLINATION": 69.9999, "RA_OF_ASC_NODE": 173.5029, "ARG_OF_PERICENTER": 273.6443, "MEAN_ANOMALY": 149.3733, "EPHEMERIS_TYPE": 0, "CLASSIFICATION_TYPE": "U", "NORAD_CAT_ID": 66824, "ELEMENT_SET_NO": 999, "REV_AT_EPOCH": 435, "BSTAR": 0.0011634, "MEAN_MOTION_DOT": 0.0007191, "MEAN_MOTION_DDOT": 0}, "tle": {"line1": "1 66824U 25280D   25355.83335647  .00071910  00000+0  11634-2 0  9996", "line2": "2 66824  69.9999 173.5029 0003372 273.6443 149.3733 15.52462911  4358"}}, "geometry": {"type": "Point", "coordinates": [-4.698462002902723, -7.9575798156877955]}}, {"type": "Feature", "properties": {"norad_id": 66825, "name": "STARLINK-35476", "group": "last-30-days", "lat": -9.7662316974719, "lon": -4.02496240111402, "alt_km": 412.75042036473405, "timestamp": "2025-12-22T05:49:02.186541+00:00", "meta": {"OBJECT_NAME": "STARLINK-35476", "OBJECT_ID": "2025-280E", "EPOCH": "2025-12-21T20:00:01.999008", "MEAN_MOTION": 15.52550323, "ECCENTRICITY": 0.0003444, "INCLINATION": 69.9999, "RA_OF_ASC_NODE": 173.5005, "ARG_OF_PERICENTER": 271.5803, "MEAN_ANOMALY": 153.3293, "EPHEMERIS_TYPE": 0, "CLASSIFICATION_TYPE": "U", "NORAD_CAT_ID": 66825, "ELEMENT_SET_NO": 999, "REV_AT_EPOCH": 420, "BSTAR": -0.0013254, "MEAN_MOTION_DOT": -0.00080976, "MEAN_MOTION_DDOT": 0}, "tle": {"line1": "1 66825U 25280E   25355.83335647 -.00080976  00000+0 -13254-2 0  9991", "line2": "2 66825  69.9999 173.5005 0003444 271.5803 153.3293 15.52550323  4205"}}, "geometry": {"type": "Point", "coordinates": [-4.02496240111402, -9.7662316974719]}}, {"type": "Feature", "properties": {"norad_id": 66826, "name": "STARLINK-35898", "group": "last-30-days", "lat": -11.551852305111058, "lon": -3.3530342911462365, "alt_km": 412.87661526294687, "timestamp": "2025-12-22T05:49:02.186551+00:00", "meta": {"OBJECT_NAME": "STARLINK-35898", "OBJECT_ID": "2025-280F", "EPOCH": "2025-12-21T20:00:01.999008", "MEAN_MOTION": 15.52453046, "ECCENTRICITY": 0.0003246, "INCLINATION": 69.9999, "RA_OF_ASC_NODE": 173.4973, "ARG_OF_PERICENTER": 273.5787, "MEAN_ANOMALY": 153.2813, "EPHEMERIS_TYPE": 0, "CLASSIFICATION_TYPE": "U", "NORAD_CAT_ID": 66826, "ELEMENT_SET_NO": 999, "REV_AT_EPOCH": 435, "BSTAR": 0.0012697, "MEAN_MOTION_DOT": 0.00078533, "MEAN_MOTION_DDOT": 0}, "tle": {"line1": "1 66826U 25280F   25355.83335647  .00078533  00000+0  12697-2 0  9996", "line2": "2 66826  69.9999 173.4973 0003246 273.5787 153.2813 15.52453046  4359"}}, "geometry": {"type": "Point", "coordinates": [-3.3530342911462365, -11.551852305111058]}}, {"type": "Feature", "properties": {"norad_id": 66827, "name": "STARLINK-35959", "group": "last-30-days", "lat": -13.35053421881451, "lon": -2.6665344127861506, "alt_km": 413.0005120046626, "timestamp": "2025-12-22T05:49:02.186561+00:00", "meta": {"OBJECT_NAME": "STARLINK-35959", "OBJECT_ID": "2025-280G", "EPOCH": "2025-12-21T20:00:01.999008", "MEAN_MOTION": 15.52453014, "ECCENTRICITY": 0.0003176, "INCLINATION": 69.9998, "RA_OF_ASC_NODE": 173.4944, "ARG_OF_PERICENTER": 274.0548, "MEAN_ANOMALY": 154.7211, "EPHEMERIS_TYPE": 0, "CLASSIFICATION_TYPE": "U", "NORAD_CAT_ID": 66827, "ELEMENT_SET_NO": 999, "REV_AT_EPOCH": 435, "BSTAR": 0.001385, "MEAN_MOTION_DOT": 0.0008576, "MEAN_MOTION_DDOT": 0}, "tle": {"line1": "1 66827U 25280G   25355.83335647  .00085760  00000+0  13850-2 0  9999", "line2": "2 66827  69.9998 173.4944 0003176 274.0548 154.7211 15.52453014  4353"}}, "geometry": {"type": "Point", "coordinates": [-2.6665344127861506, -13.35053421881451]}}, {"type": "Feature", "properties": {"norad_id": 66828, "name": "STARLINK-35982", "group": "last-30-days", "lat": -16.931459266997635, "lon": -1.263433206657638, "alt_km": 413.25741619737346, "timestamp": "2025-12-22T05:49:02.186571+00:00", "meta": {"OBJECT_NAME": "STARLINK-35982", "OBJECT_ID": "2025-280H", "EPOCH": "2025-12-21T20:00:01.999008", "MEAN_MOTION": 15.52451866, "ECCENTRICITY": 0.00033, "INCLINATION": 70, "RA_OF_ASC_NODE": 173.4903, "ARG_OF_PERICENTER": 275.5984, "MEAN_ANOMALY": 157.0136, "EPHEMERIS_TYPE": 0, "CLASSIFICATION_TYPE": "U", "NORAD_CAT_ID": 66828, "ELEMENT_SET_NO": 999, "REV_AT_EPOCH": 435, "BSTAR": 0.0013309, "MEAN_MOTION_DOT": 0.00082367, "MEAN_MOTION_DDOT": 0}, "tle": {"line1": "1 66828U 25280H   25355.83335647  .00082367  00000+0  13309-2 0  9999", "line2": "2 66828  70.0000 173.4903 0003300 275.5984 157.0136 15.52451866  4350"}}, "geometry": {"type": "Point", "coordinates": [-1.263433206657638, -16.931459266997635]}}, {"type": "Feature", "properties": {"norad_id": 66829, "name": "STARLINK-36084", "group": "last-30-days", "lat": -15.137176564979141, "lon": -1.9730692949153288, "alt_km": 413.0950907833094, "timestamp": "2025-12-22T05:49:02.186584+00:00", "meta": {"OBJECT_NAME": "STARLINK-36084", "OBJECT_ID": "2025-280J", "EPOCH": "2025-12-21T20:00:01.999008", "MEAN_MOTION": 15.52599043, "ECCENTRICITY": 0.0003342, "INCLINATION": 70.0002, "RA_OF_ASC_NODE": 173.4923, "ARG_OF_PERICENTER": 270.766, "MEAN_ANOMALY": 159.85, "EPHEMERIS_TYPE": 0, "CLASSIFICATION_TYPE": "U", "NORAD_CAT_ID": 66829, "ELEMENT_SET_NO": 999, "REV_AT_EPOCH": 419, "BSTAR": -0.0025011, "MEAN_MOTION_DOT": -0.00151584, "MEAN_MOTION_DDOT": 0}, "tle": {"line1": "1 66829U 25280J   25355.83335647 -.00151584  00000+0 -25011-2 0  9993", "line2": "2 66829  70.0002 173.4923 0003342 270.7660 159.8500 15.52599043  4196"}}, "geometry": {"type": "Point", "coordinates": [-1.9730692949153288, -15.137176564979141]}}]}